{"fetched_at":"2026-03-29T16:36:15Z","count":15609,"tles":[{"name":"STARLINK-34577","line1":"1 64719U 25142Z   26087.87847397  .00004511  00000+0  38556-3 0  9997","line2":"2 64719  70.0000 266.0944 0002517 269.1882  90.8988 14.98336307 42369","category":"Starlink"}]}