{
  "norad_id": 64719,
  "name": "STARLINK-34577",
  "history": [
    {
      "epoch": "2026-03-28T21:05:00.151008",
      "apogee_km": 573.7857457771406,
      "perigee_km": 570.2870284940564,
      "latitude_deg": 51.79937497993028,
      "longitude_deg": 16.233501119771972,
      "semi_major_axis_km": 6950.173387135598,
      "eccentricity": 0.0002517,
      "inclination_deg": 70.0,
      "raan_deg": 266.0944,
      "arg_perigee_deg": 269.1882,
      "mean_anomaly_deg": 90.8988,
      "mean_motion_rev_day": 14.98336307
    }
  ]
}